NORAD_CAT_ID,OBJECT_NAME,OBJECT_TYPE,EPOCH,MEAN_MOTION,ECCENTRICITY,INCLINATION,RA_OF_ASC_NODE,ARG_OF_PERICENTER,MEAN_ANOMALY,BSTAR,MEAN_MOTION_DOT,MEAN_MOTION_DDOT,TLE_LINE0,TLE_LINE1,TLE_LINE2,SEMIMAJOR_AXIS,PERIOD,APOGEE,PERIGEE,DECAYED
51869.0,STARLINK-3588,PAYLOAD,2024-01-09 20:06:18,15.0884558,0.0001383,53.2179,314.9063,84.8028,275.3122,4.9494e-05,5e-06,0.0,0 STARLINK-3588,1 51869U 22022T   24009.83771218  .00000500  00000-0  49494-4 0  9998,2 51869  53.2179 314.9063 0001383  84.8028 275.3122 15.08845580103874,6917.863,95.437,540.685,538.772,0.0
51869.0,STARLINK-3588,PAYLOAD,2024-01-10 02:27:50,15.08851545,0.0001382,53.2177,313.7181,84.3809,275.7341,8.4744e-05,1.061e-05,0.0,0 STARLINK-3588,1 51869U 22022T   24010.10266718  .00001061  00000-0  84744-4 0  9994,2 51869  53.2177 313.7181 0001382  84.3809 275.7341 15.08851545103911,6917.845,95.437,540.666,538.754,0.0
51869.0,STARLINK-3588,PAYLOAD,2024-01-10 19:57:05,15.08842006,0.0001527,53.218,310.4467,78.0256,282.0907,2.5184e-05,1.13e-06,0.0,0 STARLINK-3588,1 51869U 22022T   24010.83131570  .00000113  00000-0  25184-4 0  9991,2 51869  53.2180 310.4467 0001527  78.0256 282.0907 15.08842006104027,6917.874,95.437,540.796,538.683,0.0
51869.0,STARLINK-3588,PAYLOAD,2024-01-11 05:29:23,15.08848452,0.0001411,53.2183,308.6595,109.3068,250.8077,7.7269e-05,9.42e-06,0.0,0 STARLINK-3588,1 51869U 22022T   24011.22874769  .00000942  00000-0  77269-4 0  9990,2 51869  53.2183 308.6595 0001411 109.3068 250.8077 15.08848452104080,6917.855,95.437,540.696,538.743,0.0
51869.0,STARLINK-3588,PAYLOAD,2024-01-11 19:47:52,15.08844251,0.000205,53.2193,305.9765,150.3978,209.713,-7.8075e-05,-1.531e-05,0.0,0 STARLINK-3588,1 51869U 22022T   24011.82491292 -.00001531  00000-0 -78075-4 0  9995,2 51869  53.2193 305.9765 0002050 150.3978 209.7130 15.08844251104172,6917.867,95.437,541.151,538.314,0.0
51869.0,STARLINK-3588,PAYLOAD,2024-01-12 05:20:10,15.08850313,0.0001679,53.2181,304.1971,126.2714,233.8433,9.1433e-06,-1.43e-06,0.0,0 STARLINK-3588,1 51869U 22022T   24012.22234647 -.00000143  00000-0  91433-5 0  9990,2 51869  53.2181 304.1971 0001679 126.2714 233.8433 15.08850313104232,6917.849,95.437,540.875,538.552,0.0
51869.0,STARLINK-3588,PAYLOAD,2024-01-12 19:38:40,15.08833807,0.0001732,53.2175,301.5191,130.3632,229.7512,-4.5409e-05,-1.011e-05,0.0,0 STARLINK-3588,1 51869U 22022T   24012.81852181 -.00001011  00000-0 -45409-4 0  9991,2 51869  53.2175 301.5191 0001732 130.3632 229.7512 15.08833807104326,6917.899,95.438,540.962,538.566,0.0
51869.0,STARLINK-3588,PAYLOAD,2024-01-12 22:49:26,15.08841335,0.0001955,53.217,300.9217,136.9354,223.1791,-3.7741e-06,-3.48e-06,0.0,0 STARLINK-3588,1 51869U 22022T   24012.95099586 -.00000348  00000-0 -37741-5 0  9991,2 51869  53.2170 300.9217 0001955 136.9354 223.1791 15.08841335104347,6917.876,95.437,541.094,538.389,0.0
51869.0,STARLINK-3588,PAYLOAD,2024-01-13 02:00:12,15.08838782,0.0001641,53.2185,300.3312,127.186,232.9282,1.0663e-05,-1.18e-06,0.0,0 STARLINK-3588,1 51869U 22022T   24013.08347752 -.00000118  00000-0  10663-4 0  9994,2 51869  53.2185 300.3312 0001641 127.1860 232.9282 15.08838782104366,6917.884,95.438,540.884,538.614,0.0
51869.0,STARLINK-3588,PAYLOAD,2024-01-14 03:26:22,15.088403,0.0001743,53.2194,295.5788,127.25,232.8652,8.1145e-05,1.004e-05,0.0,0 STARLINK-3588,1 51869U 22022T   24014.14332022  .00001004  00000-0  81145-4 0  9993,2 51869  53.2194 295.5788 0001743 127.2500 232.8652 15.08840300104520,6917.879,95.438,540.95,538.539,0.0
51869.0,STARLINK-3588,PAYLOAD,2024-01-14 22:31:00,15.0884209,0.0001845,53.2197,292.0101,132.0334,228.0815,0.00010401,1.368e-05,0.0,0 STARLINK-3588,1 51869U 22022T   24014.93820081  .00001368  00000-0  10401-3 0  9996,2 51869  53.2197 292.0101 0001845 132.0334 228.0815 15.08842090104645,6917.874,95.437,541.015,538.463,0.0
51869.0,STARLINK-3588,PAYLOAD,2024-01-15 03:17:09,15.08853062,0.0001653,53.2186,291.1174,117.8266,242.2894,0.0002578,3.819e-05,0.0,0 STARLINK-3588,1 51869U 22022T   24015.13691457  .00003819  00000-0  25780-3 0  9991,2 51869  53.2186 291.1174 0001653 117.8266 242.2894 15.08853062104674,6917.84,95.437,540.849,538.562,0.0
51869.0,STARLINK-3588,PAYLOAD,2024-01-16 03:07:57,15.08840594,0.0001452,53.2179,286.6557,117.866,242.2479,3.4191e-05,2.56e-06,0.0,0 STARLINK-3588,1 51869U 22022T   24016.13052257  .00000256  00000-0  34191-4 0  9990,2 51869  53.2179 286.6557 0001452 117.8660 242.2479 15.08840594104827,6917.879,95.438,540.748,538.739,0.0
51869.0,STARLINK-3588,PAYLOAD,2024-01-16 22:12:34,15.088478,0.0001672,53.2159,283.0927,102.365,257.7529,1.2653e-05,-8.7e-07,0.0,0 STARLINK-3588,1 51869U 22022T   24016.92539944 -.00000087  00000-0  12653-4 0  9992,2 51869  53.2159 283.0927 0001672 102.3650 257.7529 15.08847800104946,6917.857,95.437,540.878,538.565,0.0
51869.0,STARLINK-3588,PAYLOAD,2024-01-17 01:23:20,15.0885048,0.0001467,53.2165,282.4982,95.2102,264.9057,8.0914e-05,1e-05,0.0,0 STARLINK-3588,1 51869U 22022T   24017.05787826  .00001000  00000-0  80914-4 0  9991,2 51869  53.2165 282.4982 0001467  95.2102 264.9057 15.08850480104967,6917.848,95.437,540.728,538.699,0.0
51869.0,STARLINK-3588,PAYLOAD,2024-01-17 22:03:21,15.08841134,0.0001323,53.2169,278.626,115.2863,244.8266,8.7763e-05,1.109e-05,0.0,0 STARLINK-3588,1 51869U 22022T   24017.91900369  .00001109  00000-0  87763-4 0  9994,2 51869  53.2169 278.6260 0001323 115.2863 244.8266 15.08841134105095,6917.877,95.437,540.657,538.827,0.0
51869.0,STARLINK-3588,PAYLOAD,2024-01-18 02:49:31,15.08846861,0.000142,53.2165,277.7326,117.7799,242.3337,0.00015119,2.12e-05,0.0,0 STARLINK-3588,1 51869U 22022T   24018.11772030  .00002120  00000-0  15119-3 0  9998,2 51869  53.2165 277.7326 0001420 117.7799 242.3337 15.08846861105125,6917.859,95.437,540.707,538.742,0.0
51869.0,STARLINK-3588,PAYLOAD,2024-01-18 20:18:45,15.08841117,0.0001898,53.2178,274.4566,129.0698,231.0463,-2.4746e-05,-6.82e-06,0.0,0 STARLINK-3588,1 51869U 22022T   24018.84636397 -.00000682  00000-0 -24746-4 0  9993,2 51869  53.2178 274.4566 0001898 129.0698 231.0463 15.08841117105238,6917.877,95.437,541.055,538.429,0.0
51869.0,STARLINK-3588,PAYLOAD,2024-01-18 21:54:09,15.08838969,0.0001668,53.2174,274.1628,113.0434,247.0734,-2.9938e-05,-7.64e-06,0.0,0 STARLINK-3588,1 51869U 22022T   24018.91260673 -.00000764  00000-0 -29938-4 0  9990,2 51869  53.2174 274.1628 0001668 113.0434 247.0734 15.08838969105246,6917.884,95.438,540.902,538.595,0.0
51869.0,STARLINK-3588,PAYLOAD,2024-01-19 02:40:18,15.08844202,0.0001882,53.2182,273.269,125.9704,234.1463,-1.3011e-05,-4.95e-06,0.0,0 STARLINK-3588,1 51869U 22022T   24019.11132394 -.00000495  00000-0 -13011-4 0  9997,2 51869  53.2182 273.2690 0001882 125.9704 234.1463 15.08844202105270,6917.868,95.437,541.034,538.431,0.0
51869.0,STARLINK-3588,PAYLOAD,2024-01-19 21:44:55,15.08851481,0.0001796,53.2179,269.7006,116.834,243.2836,3.5851e-06,-2.31e-06,0.0,0 STARLINK-3588,1 51869U 22022T   24019.90619952 -.00000231  00000-0  35851-5 0  9998,2 51869  53.2179 269.7006 0001796 116.8340 243.2836 15.08851481105391,6917.845,95.437,540.953,538.468,0.0
51869.0,STARLINK-3588,PAYLOAD,2024-01-19 23:20:19,15.08823864,0.0001888,53.2179,269.4035,117.5326,242.5858,0.00040129,6.101e-05,0.0,0 STARLINK-3588,1 51869U 22022T   24019.97244645  .00006101  00000-0  40129-3 0  9991,2 51869  53.2179 269.4035 0001888 117.5326 242.5858 15.08823864105406,6917.93,95.439,541.101,538.489,0.0
51869.0,STARLINK-3588,PAYLOAD,2024-01-20 21:35:43,15.08839283,0.0001674,53.2175,265.2426,115.8887,244.2278,5.7723e-05,6.31e-06,0.0,0 STARLINK-3588,1 51869U 22022T   24020.89980759  .00000631  00000-0  57723-4 0  9998,2 51869  53.2175 265.2426 0001674 115.8887 244.2278 15.08839283105548,6917.883,95.438,540.906,538.59,0.0
51869.0,STARLINK-3588,PAYLOAD,2024-01-21 19:51:07,15.08843893,0.0001802,53.218,261.0855,124.6341,235.4821,-2.854e-05,-7.42e-06,0.0,0 STARLINK-3588,1 51869U 22022T   24021.82716913 -.00000742  00000-0 -28540-4 0  9991,2 51869  53.2180 261.0855 0001802 124.6341 235.4821 15.08843893105683,6917.868,95.437,540.98,538.487,0.0
51869.0,STARLINK-3588,PAYLOAD,2024-01-21 21:26:30,15.08843479,0.0001815,53.218,260.7883,124.9318,235.1845,-2.7837e-05,-7.31e-06,0.0,0 STARLINK-3588,1 51869U 22022T   24021.89340888 -.00000731  00000-0 -27837-4 0  9998,2 51869  53.2180 260.7883 0001815 124.9318 235.1845 15.08843479105695,6917.87,95.437,540.99,538.479,0.0
51869.0,STARLINK-3588,PAYLOAD,2024-01-22 00:37:17,15.08826222,0.0001717,53.2178,260.1908,114.4106,245.7065,0.00027748,4.129e-05,0.0,0 STARLINK-3588,1 51869U 22022T   24022.02589252  .00004129  00000-0  27748-3 0  9997,2 51869  53.2178 260.1908 0001717 114.4106 245.7065 15.08826222105715,6917.923,95.438,540.975,538.6,0.0
51869.0,STARLINK-3588,PAYLOAD,2024-01-22 22:52:41,15.08838894,0.0001409,53.2175,256.0269,91.103,269.0124,9.429e-05,1.213e-05,0.0,0 STARLINK-3588,1 51869U 22022T   24022.95325248  .00001213  00000-0  94290-4 0  9990,2 51869  53.2175 256.0269 0001409  91.1030 269.0124 15.08838894105859,6917.884,95.438,540.723,538.774,0.0
51869.0,STARLINK-3588,PAYLOAD,2024-01-23 22:43:28,15.08800672,0.0001754,53.2176,251.5673,75.5994,284.5193,0.00070603,0.00010954,0.0,0 STARLINK-3588,1 51869U 22022T   24023.94686143  .00010954  00000-0  70603-3 0  9997,2 51869  53.2176 251.5673 0001754  75.5994 284.5193 15.08800672106006,6918.001,95.44,541.079,538.652,0.0
51869.0,STARLINK-3588,PAYLOAD,2024-01-24 19:23:31,15.08815951,0.0001599,53.2172,247.7037,71.5678,288.5488,-0.00012067,-2.207e-05,0.0,0 STARLINK-3588,1 51869U 22022T   24024.80800658 -.00002207  00000-0 -12067-3 0  9996,2 51869  53.2172 247.7037 0001599  71.5678 288.5488 15.08815951106136,6917.954,95.439,540.925,538.713,0.0
51869.0,STARLINK-3588,PAYLOAD,2024-01-24 20:58:53,15.08838688,0.0001637,53.2174,247.4059,80.2375,279.8802,8.4701e-05,1.06e-05,0.0,0 STARLINK-3588,1 51869U 22022T   24024.87422929  .00001060  00000-0  84701-4 0  9993,2 51869  53.2174 247.4059 0001637  80.2375 279.8802 15.08838688106149,6917.884,95.438,540.882,538.617,0.0
